OBJECT_NAME,OBJECT_ID,EPOCH,MEAN_MOTION,ECCENTRICITY,INCLINATION,RA_OF_ASC_NODE,ARG_OF_PERICENTER,MEAN_ANOMALY,EPHEMERIS_TYPE,CLASSIFICATION_TYPE,NORAD_CAT_ID,ELEMENT_SET_NO,REV_AT_EPOCH,BSTAR,MEAN_MOTION_DOT,MEAN_MOTION_DDOT
BEIDOU-3 G1,2018-085A,2026-07-11T17:44:23.080992,1.00272743,.00080903,2.9269,96.7211,355.5910,263.3755,0,U,43683,999,2830,0,-.107E-5,0
GSAT-29,2018-089A,2026-07-11T21:46:38.476992,1.00274746,.0002975,0.0551,248.5462,195.5066,227.5040,0,U,43698,999,2803,0,.88E-6,0
ES'HAIL 2,2018-090A,2026-07-11T20:32:38.706720,1.00269418,.00021809,0.0268,42.8393,117.1715,103.7059,0,U,43700,999,2792,0,0,0
GEO-KOMPSAT-2A,2018-100A,2026-07-11T19:17:59.640864,1.00271415,.00019466,0.0255,118.0813,343.4761,245.9138,0,U,43823,999,2787,0,-.339E-5,0
GSAT-11,2018-100B,2026-07-11T21:25:09.607584,1.00270879,.00076533,0.0597,260.7584,196.4521,227.8801,0,U,43824,999,2772,0,-.73E-6,0
GSAT-7A,2018-105A,2026-07-11T21:38:38.792832,1.00270206,.00016395,0.0760,91.9878,17.4480,207.7803,0,U,43864,999,2769,0,.31E-6,0
COSMOS 2533,2018-107A,2026-07-12T01:52:01.475904,1.00269314,.0000971,0.0385,112.9801,137.9005,137.0845,0,U,43867,999,2769,0,-.35E-6,0
TJS-3,2018-110A,2026-07-11T17:38:05.403264,1.00272571,.0002491,2.6053,80.1959,89.3252,172.8513,0,U,43874,999,2766,0,-.214E-5,0
ZHONGXING-2D,2019-001A,2026-07-11T19:18:29.593152,1.00272544,.00004055,0.0587,242.3301,95.8001,11.1777,0,U,43920,999,5432,0,-.333E-5,0
HELLAS-SAT 4 & SGS-1,2019-007A,2026-07-11T13:44:17.056896,1.00271241,.00057267,0.0672,126.5517,21.4154,26.5970,0,U,44034,999,2761,0,.158E-5,0
GSAT-31,2019-007B,2026-07-11T22:41:26.437632,1.00269489,.00008691,0.0244,64.1420,169.2395,84.7119,0,U,44035,999,2721,0,0,0
NUSANTARA SATU,2019-009A,2026-07-11T04:26:38.696640,1.00270084,.00045383,0.0336,125.8641,1.8585,14.0358,0,U,44048,999,2701,0,-.228E-5,0
ZHONGXING-6C,2019-012A,2026-07-11T21:01:18.753600,1.00272511,.00145899,0.0823,73.5645,339.8557,322.1383,0,U,44067,999,2698,0,-.331E-5,0
WGS 10 (USA 291),2019-014A,2026-07-11T05:17:24.953280,1.00271919,.00002663,0.0187,42.5463,213.5559,172.6870,0,U,44071,999,2685,0,.54E-6,0
TIANLIAN 2-01,2019-017A,2026-07-11T20:46:05.213568,1.00270856,.00014325,0.6009,83.0628,79.8499,155.3965,0,U,44076,999,2689,0,-.103E-5,0
ARABSAT-6A,2019-021A,2026-07-11T22:18:38.807712,1.00276880,.00013528,0.0465,16.1590,256.8220,22.0417,0,U,44186,999,2640,0,.157E-5,0
BEIDOU-3 IGSO-1,2019-023A,2026-07-11T14:06:15.226272,1.00284023,.00256263,58.7293,37.3991,224.0790,358.6331,0,U,44204,999,745,0,-.206E-5,0
BEIDOU-2 G8,2019-027A,2026-07-11T21:05:18.371040,1.00272787,.00097694,1.7169,74.5075,282.6558,33.4593,0,U,44231,999,2632,0,-.245E-5,0
YAMAL 601,2019-031A,2026-07-12T01:46:02.049312,1.00269768,.0002228,0.0168,61.1970,45.2761,259.0106,0,U,44307,999,2617,0,.123E-5,0
AT&T T-16,2019-034A,2026-07-11T19:55:11.074656,1.00269960,.00008747,0.0123,64.3040,263.5194,159.8474,0,U,44333,999,2588,0,-.111E-5,0
EUTELSAT 7C,2019-034B,2026-07-11T01:51:38.568672,1.00273692,.00033036,0.0768,180.6935,279.2014,224.0246,0,U,44334,999,707,0,.56E-6,0
BEIDOU-3 IGSO-2,2019-035A,2026-07-11T22:49:49.569024,1.00258468,.00396359,55.2507,158.6460,216.4381,15.9219,0,U,44337,999,2591,0,-.109E-5,0
COSMOS 2539,2019-048A,2026-07-11T08:28:56.036640,1.00273545,.00003248,0.0348,100.7791,62.3089,265.3995,0,U,44457,999,2546,0,.88E-6,0
EDRS-C,2019-049A,2026-07-11T21:04:48.418752,1.00271968,.00008444,0.0220,83.8333,44.7924,259.8480,0,U,44475,999,2545,0,-.258E-5,0
INTELSAT 39 (IS-39),2019-049B,2026-07-11T10:25:53.855904,1.00270150,.00008894,0.0278,39.2819,281.8876,186.5962,0,U,44476,999,2537,0,0,0
AMOS-17,2019-050A,2026-07-11T20:28:54.669792,1.00272214,.00012956,0.0155,358.2715,118.8454,136.8436,0,U,44479,999,2543,0,.113E-5,0
AEHF-5 (USA 292),2019-051A,2026-07-11T20:50:42.270720,1.00274830,.00650039,1.4344,338.1120,357.7953,359.5619,0,U,44481,999,2550,0,-.252E-5,0
EUTELSAT 5 WEST B,2019-067A,2026-07-11T20:22:32.780928,1.00271396,.00029906,0.0626,351.2134,121.3212,117.8462,0,U,44624,999,2468,0,-.38E-6,0
MEV-1,2019-067B,2026-06-16T22:18:40.152960,1.00269616,.00027946,0.8740,268.9828,179.8034,307.2103,0,U,44625,999,6174,0,-.149E-5,0
TJS-4,2019-070A,2026-07-11T17:24:33.892128,1.00269602,.0003227,0.0749,87.0573,320.5999,226.6438,0,U,44637,999,2478,0,-.165E-5,0
TIBA-1,2019-080A,2026-07-11T22:18:38.807712,1.00269091,.00018485,0.0503,6.1761,119.1272,174.6735,0,U,44800,999,2430,0,.159E-5,0
INMARSAT GX5,2019-080B,2026-07-11T20:27:17.326368,1.00272433,.00019696,0.0419,32.3110,75.7026,139.5834,0,U,44801,999,703,0,.79E-6,0
